start=new Date('2021-09-06T00:00:00.000Z').valueOf();
sats=[{"MEAN_ELEMENT_THEORY":"SGP4","PERIAPSIS":"546.284","BSTAR":"0.00007871100000","REF_FRAME":"TEME","LAUNCH_DATE":"2020-06-13","MEAN_MOTION":"15.06404484","RA_OF_ASC_NODE":"45.5672","OBJECT_NAME":"STARLINK-1509","REV_AT_EPOCH":"6838","SEMIMAJOR_AXIS":"6925.335","ELEMENT_SET_NO":"999","SITE":"AFETR","INCLINATION":"53.0567","MEAN_MOTION_DDOT":"0.0000000000000","OBJECT_TYPE":"PAYLOAD","CENTER_NAME":"EARTH","TLE_LINE1":"1 45766U 20038AN  21248.74230204  .00000891  00000-0  78711-4 0  9996","TLE_LINE2":"2 45766  53.0567  45.5672 0001323 106.1427 253.9708 15.06404484 68380","NORAD_CAT_ID":"45766","GP_ID":"184164133","DECAY_DATE":null,"PERIOD":"95.592","EPHEMERIS_TYPE":"0","EPOCH":"2021-09-05T17:48:54.896256","RCS_SIZE":"LARGE","CLASSIFICATION_TYPE":"U","ECCENTRICITY":"0.00013230","FILE":"3109348","ARG_OF_PERICENTER":"106.1427","COUNTRY_CODE":"US","APOAPSIS":"548.116","OBJECT_ID":"2020-038AN","MEAN_ANOMALY":"253.9708","TIME_SYSTEM":"UTC","MEAN_MOTION_DOT":"0.00000891"},{"FILE":"3109252","ARG_OF_PERICENTER":"98.3378","CLASSIFICATION_TYPE":"U","ECCENTRICITY":"0.00018160","APOAPSIS":"548.500","COUNTRY_CODE":"US","MEAN_ANOMALY":"261.7817","OBJECT_ID":"2020-038AP","TIME_SYSTEM":"UTC","MEAN_MOTION_DOT":"0.00001017","TLE_LINE1":"1 45767U 20038AP  21248.46955305  .00001017  00000-0  87203-4 0  9999","DECAY_DATE":null,"TLE_LINE2":"2 45767  53.0556  46.7933 0001816  98.3378 261.7817 15.06390687 68349","GP_ID":"184137942","NORAD_CAT_ID":"45767","EPHEMERIS_TYPE":"0","PERIOD":"95.593","EPOCH":"2021-09-05T11:16:09.383520","RCS_SIZE":"LARGE","SEMIMAJOR_AXIS":"6925.377","ELEMENT_SET_NO":"999","OBJECT_NAME":"STARLINK-1511","REV_AT_EPOCH":"6834","SITE":"AFETR","MEAN_MOTION_DDOT":"0.0000000000000","OBJECT_TYPE":"PAYLOAD","INCLINATION":"53.0556","CENTER_NAME":"EARTH","MEAN_ELEMENT_THEORY":"SGP4","BSTAR":"0.00008720300000","PERIAPSIS":"545.984","LAUNCH_DATE":"2020-06-13","REF_FRAME":"TEME","RA_OF_ASC_NODE":"46.7933","MEAN_MOTION":"15.06390687"},{"INCLINATION":"53.0559","MEAN_MOTION_DDOT":"0.0000000000000","OBJECT_TYPE":"PAYLOAD","CENTER_NAME":"EARTH","OBJECT_NAME":"STARLINK-1521","REV_AT_EPOCH":"6839","ELEMENT_SET_NO":"999","SEMIMAJOR_AXIS":"6925.370","SITE":"AFETR","REF_FRAME":"TEME","LAUNCH_DATE":"2020-06-13","RA_OF_ASC_NODE":"45.6860","MEAN_MOTION":"15.06392841","MEAN_ELEMENT_THEORY":"SGP4","PERIAPSIS":"546.083","BSTAR":"0.00009108500000","OBJECT_ID":"2020-038AQ","MEAN_ANOMALY":"261.5654","TIME_SYSTEM":"UTC","MEAN_MOTION_DOT":"0.00001075","CLASSIFICATION_TYPE":"U","ECCENTRICITY":"0.00016640","FILE":"3109348","ARG_OF_PERICENTER":"98.5523","COUNTRY_CODE":"US","APOAPSIS":"548.388","PERIOD":"95.593","EPHEMERIS_TYPE":"0","EPOCH":"2021-09-05T17:11:46.654944","RCS_SIZE":"LARGE","TLE_LINE1":"1 45768U 20038AQ  21248.71651221  .00001075  00000-0  91085-4 0  9995","NORAD_CAT_ID":"45768","TLE_LINE2":"2 45768  53.0559  45.6860 0001664  98.5523 261.5654 15.06392841 68391","GP_ID":"184163632","DECAY_DATE":null},{"INCLINATION":"53.0554","MEAN_MOTION_DDOT":"0.0000000000000","OBJECT_TYPE":"PAYLOAD","CENTER_NAME":"EARTH","OBJECT_NAME":"STARLINK-1459","REV_AT_EPOCH":"6808","ELEMENT_SET_NO":"999","SEMIMAJOR_AXIS":"6925.341","SITE":"AFETR","REF_FRAME":"TEME","LAUNCH_DATE":"2020-06-13","MEAN_MOTION":"15.06402363","RA_OF_ASC_NODE":"66.4717","MEAN_ELEMENT_THEORY":"SGP4","PERIAPSIS":"546.135","BSTAR":"-0.00003881400000","OBJECT_ID":"2020-038AR","MEAN_ANOMALY":"269.6369","TIME_SYSTEM":"UTC","MEAN_MOTION_DOT":"-0.00000860","CLASSIFICATION_TYPE":"U","ECCENTRICITY":"0.00015470","FILE":"3109252","ARG_OF_PERICENTER":"90.4797","COUNTRY_CODE":"US","APOAPSIS":"548.278","PERIOD":"95.592","EPHEMERIS_TYPE":"0","EPOCH":"2021-09-05T12:59:39.361056","RCS_SIZE":"LARGE","TLE_LINE1":"1 45769U 20038AR  21248.54142779 -.00000860  00000-0 -38814-4 0  9994","NORAD_CAT_ID":"45769","TLE_LINE2":"2 45769  53.0554  66.4717 0001547  90.4797 269.6369 15.06402363 68082","GP_ID":"184138935","DECAY_DATE":null},{"EPOCH":"2021-09-05T17:50:13.369920","RCS_SIZE":"LARGE","EPHEMERIS_TYPE":"0","PERIOD":"95.591","DECAY_DATE":null,"GP_ID":"184164634","TLE_LINE2":"2 45770  53.0565  25.5675 0001267 123.4199 236.6911 15.06410205 68662","NORAD_CAT_ID":"45770","TLE_LINE1":"1 45770U 20038AS  21248.74321030  .00001261  00000-0  10348-3 0  9992","TIME_SYSTEM":"UTC","MEAN_MOTION_DOT":"0.00001261","MEAN_ANOMALY":"236.6911","OBJECT_ID":"2020-038AS","APOAPSIS":"548.060","COUNTRY_CODE":"US","FILE":"3109348","ARG_OF_PERICENTER":"123.4199","CLASSIFICATION_TYPE":"U","ECCENTRICITY":"0.00012670","MEAN_MOTION":"15.06410205","RA_OF_ASC_NODE":"25.5675","LAUNCH_DATE":"2020-06-13","REF_FRAME":"TEME","BSTAR":"0.00010348000000","PERIAPSIS":"546.305","MEAN_ELEMENT_THEORY":"SGP4","CENTER_NAME":"EARTH","MEAN_MOTION_DDOT":"0.0000000000000","OBJECT_TYPE":"PAYLOAD","INCLINATION":"53.0565","SITE":"AFETR","SEMIMAJOR_AXIS":"6925.317","ELEMENT_SET_NO":"999","OBJECT_NAME":"STARLINK-1462","REV_AT_EPOCH":"6866"},{"MEAN_ANOMALY":"254.1940","OBJECT_ID":"2020-038AT","TIME_SYSTEM":"UTC","MEAN_MOTION_DOT":"-0.00000551","FILE":"3109348","ARG_OF_PERICENTER":"105.9222","CLASSIFICATION_TYPE":"U","ECCENTRICITY":"0.00015710","APOAPSIS":"548.302","COUNTRY_CODE":"US","EPHEMERIS_TYPE":"0","PERIOD":"95.592","EPOCH":"2021-09-05T17:40:57.462816","RCS_SIZE":"LARGE","TLE_LINE1":"1 45771U 20038AT  21248.73677619 -.00000551  00000-0 -18113-4 0  9991","DECAY_DATE":null,"TLE_LINE2":"2 45771  53.0561  25.5948 0001571 105.9222 254.1940 15.06399821 68669","GP_ID":"184164881","NORAD_CAT_ID":"45771","MEAN_MOTION_DDOT":"0.0000000000000","OBJECT_TYPE":"PAYLOAD","INCLINATION":"53.0561","CENTER_NAME":"EARTH","SEMIMAJOR_AXIS":"6925.349","ELEMENT_SET_NO":"999","OBJECT_NAME":"STARLINK-1463","REV_AT_EPOCH":"6866","SITE":"AFETR","LAUNCH_DATE":"2020-06-13","REF_FRAME":"TEME","MEAN_MOTION":"15.06399821","RA_OF_ASC_NODE":"25.5948","MEAN_ELEMENT_THEORY":"SGP4","BSTAR":"-0.00001811300000","PERIAPSIS":"546.126"},{"EPOCH":"2021-09-05T17:25:01.911648","RCS_SIZE":"LARGE","PERIOD":"95.592","EPHEMERIS_TYPE":"0","NORAD_CAT_ID":"45772","TLE_LINE2":"2 45772  53.0564  25.6465 0001481 109.3587 250.7562 15.06401418 68679","GP_ID":"184163132","DECAY_DATE":null,"TLE_LINE1":"1 45772U 20038AU  21248.72571657 -.00000321  00000-0 -26850-5 0  9999","TIME_SYSTEM":"UTC","MEAN_MOTION_DOT":"-0.00000321","OBJECT_ID":"2020-038AU","MEAN_ANOMALY":"250.7562","COUNTRY_CODE":"US","APOAPSIS":"548.235","CLASSIFICATION_TYPE":"U","ECCENTRICITY":"0.00014810","FILE":"3109348","ARG_OF_PERICENTER":"109.3587","RA_OF_ASC_NODE":"25.6465","MEAN_MOTION":"15.06401418","REF_FRAME":"TEME","LAUNCH_DATE":"2020-06-13","PERIAPSIS":"546.184","BSTAR":"-0.00000268500000","MEAN_ELEMENT_THEORY":"SGP4","CENTER_NAME":"EARTH","INCLINATION":"53.0564","MEAN_MOTION_DDOT":"0.0000000000000","OBJECT_TYPE":"PAYLOAD","SITE":"AFETR","OBJECT_NAME":"STARLINK-1470","REV_AT_EPOCH":"6867","SEMIMAJOR_AXIS":"6925.344","ELEMENT_SET_NO":"999"},{"CENTER_NAME":"EARTH","INCLINATION":"53.0559","OBJECT_TYPE":"PAYLOAD","MEAN_MOTION_DDOT":"0.0000000000000","SITE":"AFETR","REV_AT_EPOCH":"6867","OBJECT_NAME":"STARLINK-1482","SEMIMAJOR_AXIS":"6925.339","ELEMENT_SET_NO":"999","RA_OF_ASC_NODE":"25.6733","MEAN_MOTION":"15.06403152","REF_FRAME":"TEME","LAUNCH_DATE":"2020-06-13","PERIAPSIS":"546.254","BSTAR":"0.00011898000000","MEAN_ELEMENT_THEORY":"SGP4","MEAN_MOTION_DOT":"0.00001491","TIME_SYSTEM":"UTC","OBJECT_ID":"2020-038AV","MEAN_ANOMALY":"255.1303","COUNTRY_CODE":"US","APOAPSIS":"548.154","ECCENTRICITY":"0.00013720","CLASSIFICATION_TYPE":"U","ARG_OF_PERICENTER":"104.9838","FILE":"3109348","RCS_SIZE":"LARGE","EPOCH":"2021-09-05T17:14:24.433440","PERIOD":"95.592","EPHEMERIS_TYPE":"0","TLE_LINE2":"2 45773  53.0559  25.6733 0001372 104.9838 255.1303 15.06403152 68670","GP_ID":"184163382","NORAD_CAT_ID":"45773","DECAY_DATE":null,"TLE_LINE1":"1 45773U 20038AV  21248.71833835  .00001491  00000-0  11898-3 0  9999"},{"OBJECT_ID":"2020-038AW","MEAN_ANOMALY":"257.7011","TIME_SYSTEM":"UTC","MEAN_MOTION_DOT":"-0.00000717","CLASSIFICATION_TYPE":"U","ECCENTRICITY":"0.00015070","FILE":"3109348","ARG_OF_PERICENTER":"102.4147","COUNTRY_CODE":"US","APOAPSIS":"548.264","PERIOD":"95.592","EPHEMERIS_TYPE":"0","EPOCH":"2021-09-05T18:07:30.690912","RCS_SIZE":"MEDIUM","TLE_LINE1":"1 45774U 20038AW  21248.75521633 -.00000717  00000-0 -29262-4 0  9991","GP_ID":"184164134","TLE_LINE2":"2 45774  53.0568  25.5171 0001507 102.4147 257.7011 15.06397931 68673","NORAD_CAT_ID":"45774","DECAY_DATE":null,"INCLINATION":"53.0568","MEAN_MOTION_DDOT":"0.0000000000000","OBJECT_TYPE":"PAYLOAD","CENTER_NAME":"EARTH","OBJECT_NAME":"STARLINK-1485","REV_AT_EPOCH":"6867","SEMIMAJOR_AXIS":"6925.355","ELEMENT_SET_NO":"999","SITE":"AFETR","REF_FRAME":"TEME","LAUNCH_DATE":"2020-06-13","RA_OF_ASC_NODE":"25.5171","MEAN_MOTION":"15.06397931","MEAN_ELEMENT_THEORY":"SGP4","PERIAPSIS":"546.176","BSTAR":"-0.00002926200000"},{"COUNTRY_CODE":"US","APOAPSIS":"547.943","ECCENTRICITY":"0.00011100","CLASSIFICATION_TYPE":"U","ARG_OF_PERICENTER":"110.0510","FILE":"3109348","MEAN_MOTION_DOT":"0.00001444","TIME_SYSTEM":"UTC","OBJECT_ID":"2020-038AX","MEAN_ANOMALY":"250.0599","GP_ID":"184164381","TLE_LINE2":"2 45775  53.0558  25.4942 0001110 110.0510 250.0599 15.06412666 68688","NORAD_CAT_ID":"45775","DECAY_DATE":null,"TLE_LINE1":"1 45775U 20038AX  21248.75889269  .00001444  00000-0  11577-3 0  9999","RCS_SIZE":"LARGE","EPOCH":"2021-09-05T18:12:48.328416","PERIOD":"95.591","EPHEMERIS_TYPE":"0","SITE":"AFETR","REV_AT_EPOCH":"6868","OBJECT_NAME":"STARLINK-1488","ELEMENT_SET_NO":"999","SEMIMAJOR_AXIS":"6925.310","CENTER_NAME":"EARTH","INCLINATION":"53.0558","OBJECT_TYPE":"PAYLOAD","MEAN_MOTION_DDOT":"0.0000000000000","PERIAPSIS":"546.406","BSTAR":"0.00011577000000","MEAN_ELEMENT_THEORY":"SGP4","MEAN_MOTION":"15.06412666","RA_OF_ASC_NODE":"25.4942","REF_FRAME":"TEME","LAUNCH_DATE":"2020-06-13"}];
